#dP2022 12  8  0  0  0.00000000      96 __u+U ITR00 FIT  IAC
## 2239 345600.00000000   900.00000000 59921 0.0000000000000
+  118   C06C07C08C09C10C11C12C13C14C16C19C20C21C22C23C24C25
+        C26C27C28C29C30C32C33C34C35C36C37C38C39C40C41C42C43
+        C44C45C46E01E02E03E04E05E07E08E09E10E11E12E13E14E15
+        E18E19E21E24E25E26E27E30E31E33E34E36G01G02G03G04G05
+        G06G07G08G09G10G11G12G13G14G15G16G17G18G19G20G21G22
+        G23G24G25G26G27G29G30G31G32J02J03J04R01R02R03R04R05
+        R07R08R09R11R12R13R14R15R17R18R19R20R21R22R24R25  0
++        10  8  7  9  9  7  8  9  7 10  8  7  7  7  7  7  7
++         7  7  7  8  9  8  8  8  7  7  8  9  9  9  6  7  8
++         8  7  6  8  8  7  7  8  8  7  7  7  0  8  7  8  7
++         7  8  6  7  8  6  7  8  9  8  7  7  6  8  7  8  8
++         7  7  7  6  7  6  6  6  7  6  6  9  7  8  7  8  7
++         7  7  7  5  8  7  7  7  7  8  5  9  7  6  7  7  7
++         7  7  8  6  7  6  8  7  7  7  7  8  6  6  7  9  0
%c M  cc GPS ccc cccc cccc cccc cccc ccccc ccccc ccccc ccccc
%c cc cc ccc ccc cccc cccc cccc cccc ccccc ccccc ccccc ccccc
%f  0.0000000  0.000000000  0.00000000000  0.000000000000000
%f  0.0000000  0.000000000  0.00000000000  0.000000000000000
%i    0    0    0    0      0      0      0      0         0
%i    0    0    0    0      0      0      0      0         0
/* INFORMATION & ANALYSIS CENTER (IAC)      ULTRA-RAPID DATA
/* S/V CLOCKS ARE ALIGNED TO GNSS TIME                      
/* G:C1WC2W R:C1PC2P E:C1XC5X C:C2IC6I J:C1CC2S             
/* PCV:IGS20_2233 OL/AL:FES2004  NONE     YN ORB:CoN CLK:CoN
*  2022 12 08 21 45  0.00000000
PC06 -16257.053933  35861.037707 -15421.160405    221.440544
PC07  -2130.258872  36213.807022 -21344.267171    102.719202
PC08  -8848.790788  19390.312932  36376.977880    520.930130
PC09 -11687.340399  34529.537127 -21241.506825   -787.536045
PC10   4347.665686  38406.265739 -15923.977151     54.908492
PC11 -13986.282263  23982.190616   2747.684628   -246.985775
PC12 -19965.093447  13346.760514 -14155.315641    337.024001
PC13   -213.216197  22280.981506  35958.048878    153.336265
PC14  -3367.001876  20656.309926  18447.211312    247.797257
PC16 -20788.536512  35381.518028 -10135.216494    104.805510
PC19  -4526.817880 -25076.477712 -11371.441875   -905.546846
PC20   9294.083156 -14488.758223 -21962.356148    812.205252
PC21 -18547.484500  -5713.617499  20067.214843   -928.730585
PC22 -16347.994164 -21739.511505   6271.188937   -750.533163
PC23  18381.040827  12766.600662 -16677.922722   -872.392252
PC24 -21575.665493   9762.557987 -14753.031304   -700.672796
PC25   -595.364244  16273.357340 -22672.759332     36.609767
PC26 -27879.279384   -558.454818    138.505707    -47.124707
PC27  19273.330878  -4747.986037  19595.259942     63.324777
PC28  10023.003116  13210.442844  22452.087680     45.037188
PC29   5248.481914 -24799.729815 -11670.501590     51.142879
PC30  17471.767370 -20805.283133   6327.163492      1.168685
PC32  18609.287944   5661.444167 -19999.467313   -689.453165
PC33   4556.316565  25019.080315  11480.232007   -897.161961
PC34 -17046.554938  21490.510521  -5197.857438     56.826880
PC35  -9384.632311 -14336.621075 -22023.649543    124.319774
PC36   1772.792504 -16214.443762  22661.016461   -781.923698
PC37  27803.412642   2118.752794  -1454.461219   -889.102525
PC38 -17041.151084  19651.112596  33176.324892     43.622020
PC39 -21444.207749  35966.451858  -5808.887185     -1.030620
PC40  -6523.896267  32464.142936 -25996.176918     -9.782590
PC41  16169.319865  22020.813820  -5655.220456   -359.598661
PC42 -10214.448474  13371.020595  22298.157528   -814.164164
PC43  -5904.007708  24983.954588  10961.886911     29.112150
PC44 -19165.249000   5193.158751 -19626.870536    138.947719
PC45 -18685.245621 -12525.255611  16491.548036    -32.286141
PC46  20225.456784 -10602.368918  16065.058920    -18.285994
PE01  20913.540727  -3178.638503  20711.281477   -573.124247
PE02 -20703.476257   3442.996028 -20866.024569      7.395099
PE03 -15356.818125  14498.784372  20727.139055   -627.871322
PE04   5802.476870 -28359.770681  -6173.870995     -9.929176
PE05 -16104.980384  -8217.891477  23431.110192   -116.960319
PE07   7447.815830  25809.855836 -12429.741787     -5.622064
PE08  -5715.139750  28362.764009   6228.337716      0.496751
PE09  -7301.095821 -25918.855211  12296.127894   -757.137063
PE10   3734.722162 -18491.012586 -22812.975308   -496.424448
PE11      0.000000      0.000000      0.000000 999999.999999
PE12  13693.454054 -19678.557491 -17349.583866   -321.351722
PE13   6925.648533  14462.351569  24889.772710    430.428769
PE14 -19738.893574   2683.122368 -22677.130598     79.093057
PE15 -13962.269005  19661.639075  17177.005895    702.227065
PE18  14862.777494 -19139.108259  12874.441393   -650.908750
PE19  15978.651850 -11639.740540 -22030.017887  -3793.551254
PE21  26362.141452  11593.081037   6865.100038   -499.219255
PE24 -16332.544986 -21154.286626  12680.644177   -991.055463
PE25 -26326.397071 -11810.994232  -6569.178897   -594.491756
PE26  24052.763335    332.936626  17263.805473  -1887.106371
PE27  17204.032317  20940.095551 -11922.179656   -458.529319
PE30  -2856.519395  17559.111932 -23670.340941  -1062.360339
PE31   2018.145375 -17863.223377  23521.256918   -510.166196
PE33  26481.360567 -13207.895972    646.557867   -455.578858
PE34 -26401.991633  13360.616829   -459.577861    -18.631680
PE36 -23534.382088   -838.044291 -17925.701353   -472.503981
PG01   2319.134665 -16019.473824 -21293.064793    240.431021
PG02   1483.899440  16112.473613  21731.110627   -634.021758
PG03  -6708.435785 -19477.494762 -16949.828963   -375.193932
PG04     69.993371 -25858.147330   5820.419362    -72.159208
PG05  -7081.428300  13375.558292  21647.795318   -107.326933
PG06 -25066.409938   5201.677004  -7159.925363    536.098847
PG07 -13786.584583 -10334.729776  20752.601349    277.118800
PG08   6423.616860 -24951.386423   5525.943098    -97.699983
PG09  -8699.426175 -19904.633342  15172.172685   -256.534892
PG10  23097.646414  10165.473854  -8621.146408    -15.256971
PG11 -23044.504023  12102.951444   5195.697272    -53.358593
PG12   4325.858482  19812.826368 -17479.184941   -313.629928
PG13 -13093.575085  20244.120140  10752.289334    438.583001
PG14 -22656.646741 -12201.638125  -6814.232914    -71.297635
PG15  -3263.529855  25698.104966   4693.221319     -5.737794
PG16  12441.754550  -8738.969404  21528.861079   -526.381901
PG17 -13311.504290  -7270.348113 -21353.173717    684.371824
PG18  15557.870912   8383.378390  19874.577225    -51.668259
PG19 -15772.980714   5019.823305 -20942.041265    247.929483
PG20 -18018.285230   5642.261337  18613.484468    464.857059
PG21  10600.314196 -17789.464719 -15568.177752    154.301949
PG22  15548.341242  -8721.791294 -19208.488791    380.742927
PG23  20797.240747  16527.630979   1960.000321     -0.214802
PG24  -5450.713965  18355.840327 -18575.302552     24.534168
PG25  14523.764591  19988.824037 -10409.565373    400.217033
PG26  20936.560781   -593.152034  16422.152046    237.938657
PG27  12498.051998 -17647.919416  14919.060805    158.299571
PG29   5175.829897  21870.712756  14047.374038   -572.682212
PG30 -22823.952468  -1714.103160  13777.428044   -535.706237
PG31  25595.343002  -5707.263145  -5713.718835   -202.666459
PG32  14835.577447   3625.573052 -21586.076116   -322.953094
PJ02 -24942.676667  16524.833798 -25115.923721     -0.275280
PJ03 -27332.173850  32228.352031   3667.100383     -6.246512
PJ04 -26371.811947  26461.519022  25568.820752    114.692694
PR01   2372.131192 -18675.803008 -17219.451781     19.214957
PR02  -7444.732781 -24358.110224    128.075137    -23.408264
PR03 -12726.531640 -14994.836320  16245.027061     68.725108
PR04 -10573.727539   2295.928583  23121.759596    167.857595
PR05  -2875.724076  18471.656623  17376.657622    104.218746
PR07  12757.334696  14473.680184 -16684.228639     45.728983
PR08  10618.076219  -2478.853972 -23008.939974    -68.468433
PR09  10114.026038  12104.456684 -20006.794714     91.941912
PR11  23531.682191    144.956220   9837.447364     16.147714
PR12   9342.217777  -8776.066903  22079.178319     23.487186
PR13  -8455.775790 -11963.860269  20862.075139    -29.740748
PR14 -23249.931217  -8211.220442   6568.654037     24.082963
PR15 -23128.061478    195.304075 -10740.391152     92.460607
PR17 -11569.735360  -2637.917842 -22558.106459    585.202271
PR18 -18808.576052  11335.316048 -12996.686628     55.852551
PR19 -17362.134206  18574.702222   2014.832582   -213.845074
PR20  -3715.327946  15947.362906  19587.599099    -83.589509
PR21  12617.885242   1174.122060  22149.664142   -355.959787
PR22  19489.807181 -10946.845886  12308.247881     19.485663
PR24   2405.980133 -15979.094218 -19719.200753    131.503787
PR25  11399.686076   3726.039811  22525.184561     48.386701
EOF
